[{"OBJECT_NAME":"OBJECT K","OBJECT_ID":"2024-205K","EPOCH":"2026-03-09T22:22:01.331040","MEAN_MOTION":15.27932792,"ECCENTRICITY":0.00106729,"INCLINATION":97.417,"RA_OF_ASC_NODE":146.2172,"ARG_OF_PERICENTER":37.4736,"MEAN_ANOMALY":322.7246,"EPHEMERIS_TYPE":0,"CLASSIFICATION_TYPE":"U","NORAD_CAT_ID":61903,"ELEMENT_SET_NO":999,"REV_AT_EPOCH":7347,"BSTAR":0.00067315144,"MEAN_MOTION_DOT":0.00018331,"MEAN_MOTION_DDOT":0},{"OBJECT_NAME":"STARLINK-34870","OBJECT_ID":"2025-190V","EPOCH":"2026-03-09T13:04:14.667744","MEAN_MOTION":15.30206961,"ECCENTRICITY":0.00013632,"INCLINATION":53.1593,"RA_OF_ASC_NODE":168.8039,"ARG_OF_PERICENTER":100.7212,"MEAN_ANOMALY":259.3943,"EPHEMERIS_TYPE":0,"CLASSIFICATION_TYPE":"U","NORAD_CAT_ID":65370,"ELEMENT_SET_NO":999,"REV_AT_EPOCH":2926,"BSTAR":0.0010086295,"MEAN_MOTION_DOT":0.00029639,"MEAN_MOTION_DDOT":0}]
